[{"OBJECT_NAME":"STARLINK-35988","OBJECT_ID":"2025-270AD","EPOCH":"2026-03-09T00:18:26.630208","MEAN_MOTION":15.27595554,"ECCENTRICITY":0.00016125,"INCLINATION":43.0062,"RA_OF_ASC_NODE":59.8859,"ARG_OF_PERICENTER":250.6408,"MEAN_ANOMALY":109.427,"EPHEMERIS_TYPE":0,"CLASSIFICATION_TYPE":"U","NORAD_CAT_ID":66615,"ELEMENT_SET_NO":999,"REV_AT_EPOCH":1744,"BSTAR":0.0015737105,"MEAN_MOTION_DOT":0.00043318,"MEAN_MOTION_DDOT":0},{"OBJECT_NAME":"KUIPER-00266","OBJECT_ID":"2026-030AB","EPOCH":"2026-03-08T21:54:37.698048","MEAN_MOTION":15.30874235,"ECCENTRICITY":0.0022313,"INCLINATION":51.8807,"RA_OF_ASC_NODE":223.5904,"ARG_OF_PERICENTER":72.5291,"MEAN_ANOMALY":287.8129,"EPHEMERIS_TYPE":0,"CLASSIFICATION_TYPE":"U","NORAD_CAT_ID":67789,"ELEMENT_SET_NO":999,"REV_AT_EPOCH":496,"BSTAR":0.00098219753,"MEAN_MOTION_DOT":0.00029701,"MEAN_MOTION_DDOT":0}]
