STARLINK-35988          
1 66615U 25270AD  26068.01280822  .00043318  00000+0  15737-2 0  9998
2 66615  43.0062  59.8859 0001612 250.6408 109.4270 15.27595554 17447
KUIPER-00266            
1 67789U 26030AB  26067.91293632  .00029701  00000+0  98220-3 0  9996
2 67789  51.8807 223.5904 0022313  72.5291 287.8129 15.30874235  4964
